[{"OBJECT_NAME":"ION SCV-008","OBJECT_ID":"2023-001AU","EPOCH":"2026-03-09T19:46:58.662912","MEAN_MOTION":15.2722664,"ECCENTRICITY":0.00151921,"INCLINATION":97.5676,"RA_OF_ASC_NODE":163.606,"ARG_OF_PERICENTER":8.542,"MEAN_ANOMALY":351.6074,"EPHEMERIS_TYPE":0,"CLASSIFICATION_TYPE":"U","NORAD_CAT_ID":55051,"ELEMENT_SET_NO":999,"REV_AT_EPOCH":17616,"BSTAR":0.00031422806,"MEAN_MOTION_DOT":8.336e-5,"MEAN_MOTION_DDOT":0},{"OBJECT_NAME":"STARLINK-34040","OBJECT_ID":"2025-093D","EPOCH":"2026-03-09T10:21:55.365120","MEAN_MOTION":15.27581833,"ECCENTRICITY":0.00011682,"INCLINATION":43.0021,"RA_OF_ASC_NODE":79.2819,"ARG_OF_PERICENTER":264.7212,"MEAN_ANOMALY":95.3506,"EPHEMERIS_TYPE":0,"CLASSIFICATION_TYPE":"U","NORAD_CAT_ID":63839,"ELEMENT_SET_NO":999,"REV_AT_EPOCH":4793,"BSTAR":0.0010300341,"MEAN_MOTION_DOT":0.00028192,"MEAN_MOTION_DDOT":0}]
