ION SCV-008             
1 55051U 23001AU  26068.82429008  .00008336  00000+0  31423-3 0  9992
2 55051  97.5676 163.6060 0015192   8.5420 351.6074 15.27226640176169
STARLINK-34040          
1 63839U 25093D   26068.43189080  .00028192  00000+0  10300-2 0  9990
2 63839  43.0021  79.2819 0001168 264.7212  95.3506 15.27581833 47931
